OBJECT_NAME,OBJECT_ID,EPOCH,MEAN_MOTION,ECCENTRICITY,INCLINATION,RA_OF_ASC_NODE,ARG_OF_PERICENTER,MEAN_ANOMALY,EPHEMERIS_TYPE,CLASSIFICATION_TYPE,NORAD_CAT_ID,ELEMENT_SET_NO,REV_AT_EPOCH,BSTAR,MEAN_MOTION_DOT,MEAN_MOTION_DDOT
FLOCK 4BE-6,2024-149BA,2026-06-27T04:36:52.801056,15.39842418,.0002553,97.3797,261.9014,237.0347,123.0653,0,U,60516,999,10381,.40331E-3,.15939E-3,0
FLOCK 4BE-14,2024-149BB,2026-06-27T05:33:33.103296,15.41305962,.0003602,97.3701,262.0862,240.6593,119.4294,0,U,60517,999,10387,.45612E-3,.1894E-3,0
FLOCK 4BE-1,2024-149BC,2026-06-27T04:07:58.224288,15.42919287,.0003403,97.3785,263.3396,239.4723,120.6189,0,U,60518,999,10391,.43636E-3,.19117E-3,0
FLOCK 4BE-28,2024-149BD,2026-06-27T04:06:52.672608,15.45247964,.0003461,97.3753,264.0943,233.7858,126.3071,0,U,60519,999,10398,.43426E-3,.20588E-3,0
IPERDRONE.0,2024-149BE,2026-06-27T04:51:28.747584,15.68131711,.0004193,97.3778,271.9177,202.8013,157.3063,0,U,60520,999,10448,.74862E-3,.83815E-3,0
TRANSPORTER-11 OBJECT BF,2024-149BF,2026-06-27T05:12:17.757216,15.90205666,.0006968,97.3750,274.9696,227.8212,132.2469,0,U,60521,999,10467,.11932E-2,.358419E-2,.49703E-4
CONNECTA IOT-2,2024-149BG,2026-06-27T03:50:37.260672,15.24054689,.0004856,97.3842,256.1546,294.2489,65.8241,0,U,60522,999,10341,.20779E-3,.4971E-4,0
CONNECTA IOT-4,2024-149BJ,2026-06-27T04:46:21.528192,15.42507498,.0004533,97.3804,262.6889,239.5241,120.5559,0,U,60524,999,10387,.52165E-3,.22571E-3,0
ORESAT0.5,2024-149BK,2026-06-27T05:17:12.546240,15.45447855,.0004653,97.3725,264.3757,227.4239,132.6617,0,U,60525,999,10402,.45725E-3,.21838E-3,0
DEIMOS,2024-149BL,2026-06-27T04:38:23.576352,15.44568701,.0004529,97.3790,264.4836,235.5802,124.5019,0,U,60526,999,10399,.4383E-3,.20308E-3,0
CUAVA-2,2024-149BM,2026-06-27T04:18:22.027104,15.36338231,.0005416,97.3733,259.7162,249.1595,110.9069,0,U,60527,999,10370,.37881E-3,.13355E-3,0
ERNST,2024-149BN,2026-06-27T04:20:11.950368,15.39461324,.0004622,97.3815,261.9761,250.0434,110.0314,0,U,60528,999,10381,.38915E-3,.15187E-3,0
TORO,2024-149BQ,2026-06-27T04:52:13.412064,14.96454320,.0001125,97.6781,252.6839,93.0679,267.0671,0,U,60530,999,10145,.16887E-3,.1859E-4,0
HYPSO-2,2024-149BR,2026-06-27T03:33:19.296000,14.98833532,.0001007,97.6812,254.2625,125.5683,234.5634,0,U,60531,999,10154,.25715E-3,.3044E-4,0
LEMU NGE,2024-149BS,2026-06-27T03:47:40.920000,14.94993295,.0001662,97.6844,252.9159,61.3205,298.8183,0,U,60532,999,10144,.27702E-3,.2972E-4,0
LEMUR-2-STELLA,2024-149BT,2026-06-27T04:59:19.332096,15.12013491,.0001399,97.6743,260.7072,98.6856,261.4532,0,U,60533,999,10201,.66323E-3,.11335E-3,0
SATELIOT_2,2024-149BU,2026-06-27T04:34:17.992128,14.96395010,.0001722,97.6829,252.9645,84.1787,275.9631,0,U,60534,999,10146,.1366E-3,.149E-4,0
NIGHTJAR,2024-149BV,2026-06-27T04:54:56.689056,14.99065295,.0000924,97.6832,254.7711,113.9620,246.1700,0,U,60535,999,14437,.27216E-3,.3245E-4,0
LEMUR-2-MARHISYAM,2024-149BW,2026-06-27T04:36:16.481952,15.11447359,.0003184,97.6883,261.1503,100.0512,260.1077,0,U,60536,999,10199,.671E-3,.1129E-3,0
SATELIOT_4,2024-149BX,2026-06-27T04:46:58.321632,14.96697248,.0002263,97.6732,252.4935,36.6561,323.4815,0,U,60537,999,10147,.1533E-3,.1693E-4,0
PICO-02A021,2024-149BY,2026-06-27T00:25:22.620288,15.03345873,.0004237,97.6768,256.7649,5.5699,354.5572,0,U,60538,999,10121,.40751E-3,.5474E-4,0
ICEYE-X43,2024-149BZ,2026-06-27T04:05:47.857920,14.99689089,.0008031,97.6818,254.9998,55.7964,304.4020,0,U,60539,999,10161,.35254E-3,.4293E-4,0
HAWK-10A,2024-149CA,2026-06-27T04:46:37.449120,14.96540543,.0004269,97.6890,253.9386,53.0932,307.0681,0,U,60540,999,10148,.12084E-3,.1317E-4,0
UMBRA-09,2024-149CB,2026-06-27T05:13:24.750912,15.18329921,.0001149,97.6973,265.5961,238.6746,121.4375,0,U,60541,999,10224,.63817E-3,.13042E-3,0
QPS-SAR-8 (AMATERU-IV),2024-149CC,2026-06-27T04:07:56.148096,15.04227149,.0004159,97.6664,257.2377,85.3484,274.8216,0,U,60542,999,10177,.48745E-3,.6718E-4,0
ARCTIC WEATHER SATELLITE,2024-149CD,2026-06-27T03:52:13.177632,14.89797215,.0003659,97.6799,248.3418,85.4274,274.7361,0,U,60543,999,10078,.89248E-4,.803E-5,0
CAPELLA-15 (ACADIA-5),2024-149CE,2026-06-27T04:17:05.474112,14.92381480,.000425,97.6774,250.8322,47.5336,312.6242,0,U,60544,999,10134,.37028E-3,.3735E-4,0
HAWK-10B,2024-149CF,2026-06-27T03:10:08.244768,14.96539240,.0006411,97.6809,253.2178,66.4475,293.7419,0,U,60545,999,10147,.12183E-3,.1328E-4,0
ICEYE-X39,2024-149CG,2026-06-27T03:36:38.604384,14.99953316,.0006354,97.6763,255.0380,93.1643,267.0307,0,U,60546,999,10161,.29845E-3,.3649E-4,0
UMBRA-10,2024-149CH,2026-06-27T05:12:46.651968,15.18335089,.0000433,97.6982,265.6239,162.0682,198.0566,0,U,60547,999,10225,.82786E-3,.16951E-3,0
