FLOCK 4BE-6             
1 60516U 24149BA  26178.19227779  .00015939  00000+0  40331-3 0  9996
2 60516  97.3797 261.9014 0002553 237.0347 123.0653 15.39842418103814
FLOCK 4BE-14            
1 60517U 24149BB  26178.23163314  .00018940  00000+0  45612-3 0  9998
2 60517  97.3701 262.0862 0003602 240.6593 119.4294 15.41305962103879
FLOCK 4BE-1             
1 60518U 24149BC  26178.17220167  .00019117  00000+0  43636-3 0  9993
2 60518  97.3785 263.3396 0003403 239.4723 120.6189 15.42919287103912
FLOCK 4BE-28            
1 60519U 24149BD  26178.17144297  .00020588  00000+0  43426-3 0  9994
2 60519  97.3753 264.0943 0003461 233.7858 126.3071 15.45247964103983
IPERDRONE.0             
1 60520U 24149BE  26178.20241606  .00083815  00000+0  74862-3 0  9992
2 60520  97.3778 271.9177 0004193 202.8013 157.3063 15.68131711104489
TRANSPORTER-11 OBJECT BF
1 60521U 24149BF  26178.21687219  .00358419  49703-4  11932-2 0  9999
2 60521  97.3750 274.9696 0006968 227.8212 132.2469 15.90205666104678
CONNECTA IOT-2          
1 60522U 24149BG  26178.16015348  .00004971  00000+0  20779-3 0  9995
2 60522  97.3842 256.1546 0004856 294.2489  65.8241 15.24054689103419
CONNECTA IOT-4          
1 60524U 24149BJ  26178.19886028  .00022571  00000+0  52165-3 0  9991
2 60524  97.3804 262.6889 0004533 239.5241 120.5559 15.42507498103873
ORESAT0.5               
1 60525U 24149BK  26178.22028410  .00021838  00000+0  45725-3 0  9998
2 60525  97.3725 264.3757 0004653 227.4239 132.6617 15.45447855104025
DEIMOS                  
1 60526U 24149BL  26178.19332843  .00020308  00000+0  43830-3 0  9999
2 60526  97.3790 264.4836 0004529 235.5802 124.5019 15.44568701103999
CUAVA-2                 
1 60527U 24149BM  26178.17942161  .00013355  00000+0  37881-3 0  9991
2 60527  97.3733 259.7162 0005416 249.1595 110.9069 15.36338231103709
ERNST                   
1 60528U 24149BN  26178.18069387  .00015187  00000+0  38915-3 0  9997
2 60528  97.3815 261.9761 0004622 250.0434 110.0314 15.39461324103811
TORO                    
1 60530U 24149BQ  26178.20293301  .00001859  00000+0  16887-3 0  9993
2 60530  97.6781 252.6839 0001125  93.0679 267.0671 14.96454320101450
HYPSO-2                 
1 60531U 24149BR  26178.14814000  .00003044  00000+0  25715-3 0  9990
2 60531  97.6812 254.2625 0001007 125.5683 234.5634 14.98833532101548
LEMU NGE                
1 60532U 24149BS  26178.15811250  .00002972  00000+0  27702-3 0  9993
2 60532  97.6844 252.9159 0001662  61.3205 298.8183 14.94993295101445
LEMUR-2-STELLA          
1 60533U 24149BT  26178.20786264  .00011335  00000+0  66323-3 0  9991
2 60533  97.6743 260.7072 0001399  98.6856 261.4532 15.12013491102017
SATELIOT_2              
1 60534U 24149BU  26178.19048602  .00001490  00000+0  13660-3 0  9994
2 60534  97.6829 252.9645 0001722  84.1787 275.9631 14.96395010101464
NIGHTJAR                
1 60535U 24149BV  26178.20482279  .00003245  00000+0  27216-3 0  9991
2 60535  97.6832 254.7711 0000924 113.9620 246.1700 14.99065295144379
LEMUR-2-MARHISYAM       
1 60536U 24149BW  26178.19185743  .00011290  00000+0  67100-3 0  9991
2 60536  97.6883 261.1503 0003184 100.0512 260.1077 15.11447359101999
SATELIOT_4              
1 60537U 24149BX  26178.19928613  .00001693  00000+0  15330-3 0  9997
2 60537  97.6732 252.4935 0002263  36.6561 323.4815 14.96697248101472
PICO-02A021             
1 60538U 24149BY  26178.01762292  .00005474  00000+0  40751-3 0  9994
2 60538  97.6768 256.7649 0004237   5.5699 354.5572 15.03345873101211
ICEYE-X43               
1 60539U 24149BZ  26178.17069280  .00004293  00000+0  35254-3 0  9999
2 60539  97.6818 254.9998 0008031  55.7964 304.4020 14.99689089101613
HAWK-10A                
1 60540U 24149CA  26178.19904455  .00001317  00000+0  12084-3 0  9995
2 60540  97.6890 253.9386 0004269  53.0932 307.0681 14.96540543101485
UMBRA-09                
1 60541U 24149CB  26178.21764758  .00013042  00000+0  63817-3 0  9997
2 60541  97.6973 265.5961 0001149 238.6746 121.4375 15.18329921102247
QPS-SAR-8 (AMATERU-IV)  
1 60542U 24149CC  26178.17217764  .00006718  00000+0  48745-3 0  9998
2 60542  97.6664 257.2377 0004159  85.3484 274.8216 15.04227149101772
ARCTIC WEATHER SATELLITE
1 60543U 24149CD  26178.16126363  .00000803  00000+0  89248-4 0  9995
2 60543  97.6799 248.3418 0003659  85.4274 274.7361 14.89797215100789
CAPELLA-15 (ACADIA-5)   
1 60544U 24149CE  26178.17853558  .00003735  00000+0  37028-3 0  9995
2 60544  97.6774 250.8322 0004250  47.5336 312.6242 14.92381480101341
HAWK-10B                
1 60545U 24149CF  26178.13203987  .00001328  00000+0  12183-3 0  9998
2 60545  97.6809 253.2178 0006411  66.4475 293.7419 14.96539240101474
ICEYE-X39               
1 60546U 24149CG  26178.15044681  .00003649  00000+0  29845-3 0  9996
2 60546  97.6763 255.0380 0006354  93.1643 267.0307 14.99953316101612
UMBRA-10                
1 60547U 24149CH  26178.21720662  .00016951  00000+0  82786-3 0  9997
2 60547  97.6982 265.6239 0000433 162.0682 198.0566 15.18335089102251
